41186,ORBCOMM FM115,2015,98.61,172.0,+,47.0,Active,1,LEO,USA,ORBCOMM,Commercial,Communications,Falcon,1 41186U 15081H   24016.36222388  .00001883  00000+0  42154-3 0  9990,2 41186  47.0006 337.9150 0001043 257.0790 102.9980 14.60271918432035,14.60271918,0.0001043,LEO
41187,ORBCOMM FM108,2015,98.89,172.0,+,47.01,Active,1,LEO,USA,ORBCOMM,Commercial,Communications,Falcon,1 41187U 15081J   24016.42830407  .00001937  00000+0  47179-3 0  9997,2 41187  47.0063  28.2873 0001415  85.1939 274.9107 14.56181551431284,14.56181551,0.0001415,LEO
41188,ORBCOMM FM117,2015,98.89,172.0,+,47.0,Active,1,LEO,USA,ORBCOMM,Commercial,Communications,Falcon,1 41188U 15081K   24016.39429316  .00002031  00000+0  49283-3 0  9991,2 41188  47.0023  27.3819 0001882 110.0006 250.1081 14.56186325431328,14.56186325,0.0001882,LEO
41189,ORBCOMM FM116,2015,98.89,172.0,+,47.0,Active,1,LEO,USA,ORBCOMM,Commercial,Communications,Falcon,1 41189U 15081L   24016.38377147  .00001735  00000+0  42648-3 0  9993,2 41189  47.0014 117.2427 0002902 216.2787 143.7901 14.56190398430133,14.56190398,0.0002902,LEO
